{
  "type": "FeatureCollection",
  "features": [
    {
      "type": "Feature",
      "properties": {
        "norad_id": 34761,
        "name": "COSMOS 2251 DEB",
        "group": "cosmos-2251-debris",
        "lat": -9.688508924096386,
        "lon": -171.88896183339062,
        "alt_km": 791.2522246991093,
        "timestamp": "2025-12-11T08:58:27.520503+00:00",
        "meta_object_name": "COSMOS 2251 DEB",
        "meta_object_id": "1993-036AAF",
        "meta_epoch": "2025-12-11T01:25:03.318816",
        "meta_mean_motion": 14.38039195,
        "meta_eccentricity": 0.0036336,
        "meta_inclination": 74.0296,
        "meta_ra_of_asc_node": 5.8886,
        "meta_arg_of_pericenter": 40.4894,
        "meta_mean_anomaly": 319.8953,
        "meta_ephemeris_type": 0,
        "meta_classification_type": "U",
        "meta_norad_cat_id": 34761,
        "meta_element_set_no": 999,
        "meta_rev_at_epoch": 87625,
        "meta_bstar": 0.0008489,
        "meta_mean_motion_dot": 2.564e-05,
        "meta_mean_motion_ddot": 0,
        "tle_line1": "1 34761U 93036AAF 25345.05906619  .00002564  00000+0  84890-3 0  9995",
        "tle_line2": "2 34761  74.0296   5.8886 0036336  40.4894 319.8953 14.38039195876255"
      },
      "geometry": {
        "type": "Point",
        "coordinates": [
          -171.88896183339062,
          -9.688508924096386
        ]
      }
    },
    {
      "type": "Feature",
      "properties": {
        "norad_id": 34784,
        "name": "COSMOS 2251 DEB",
        "group": "cosmos-2251-debris",
        "lat": -48.236292138669484,
        "lon": -51.76285399144489,
        "alt_km": 731.8522393721405,
        "timestamp": "2025-12-11T08:58:27.520513+00:00",
        "meta_object_name": "COSMOS 2251 DEB",
        "meta_object_id": "1993-036AAM",
        "meta_epoch": "2025-12-10T16:46:20.786880",
        "meta_mean_motion": 14.60764194,
        "meta_eccentricity": 0.00494737,
        "meta_inclination": 74.0076,
        "meta_ra_of_asc_node": 328.2622,
        "meta_arg_of_pericenter": 138.1913,
        "meta_mean_anomaly": 222.305,
        "meta_ephemeris_type": 0,
        "meta_classification_type": "U",
        "meta_norad_cat_id": 34784,
        "meta_element_set_no": 999,
        "meta_rev_at_epoch": 88505,
        "meta_bstar": 0.00075480523,
        "meta_mean_motion_dot": 3.719e-05,
        "meta_mean_motion_ddot": 0,
        "tle_line1": "1 34784U 93036AAM 25344.69885170  .00003719  00000+0  75481-3 0  9996",
        "tle_line2": "2 34784  74.0076 328.2622 0049473 138.1913 222.3050 14.60764194885052"
      },
      "geometry": {
        "type": "Point",
        "coordinates": [
          -51.76285399144489,
          -48.236292138669484
        ]
      }
    },
    {
      "type": "Feature",
      "properties": {
        "norad_id": 34790,
        "name": "COSMOS 2251 DEB",
        "group": "cosmos-2251-debris",
        "lat": -66.09812891006295,
        "lon": 106.34240027236169,
        "alt_km": 775.6884360096155,
        "timestamp": "2025-12-11T08:58:27.520523+00:00",
        "meta_object_name": "COSMOS 2251 DEB",
        "meta_object_id": "1993-036AAT",
        "meta_epoch": "2025-12-11T05:11:30.453216",
        "meta_mean_motion": 14.24623165,
        "meta_eccentricity": 0.0100796,
        "meta_inclination": 74.0532,
        "meta_ra_of_asc_node": 246.4479,
        "meta_arg_of_pericenter": 308.3141,
        "meta_mean_anomaly": 216.5902,
        "meta_ephemeris_type": 0,
        "meta_classification_type": "U",
        "meta_norad_cat_id": 34790,
        "meta_element_set_no": 999,
        "meta_rev_at_epoch": 86551,
        "meta_bstar": 0.0011082,
        "meta_mean_motion_dot": 2.689e-05,
        "meta_mean_motion_ddot": 0,
        "tle_line1": "1 34790U 93036AAT 25345.21632469  .00002689  00000+0  11082-2 0  9994",
        "tle_line2": "2 34790  74.0532 246.4479 0100796 308.3141 216.5902 14.24623165865519"
      },
      "geometry": {
        "type": "Point",
        "coordinates": [
          106.34240027236169,
          -66.09812891006295
        ]
      }
    },
    {
      "type": "Feature",
      "properties": {
        "norad_id": 34792,
        "name": "COSMOS 2251 DEB",
        "group": "cosmos-2251-debris",
        "lat": 44.94071509329873,
        "lon": -171.07958956039425,
        "alt_km": 709.0374337094945,
        "timestamp": "2025-12-11T08:58:27.520534+00:00",
        "meta_object_name": "COSMOS 2251 DEB",
        "meta_object_id": "1993-036AAV",
        "meta_epoch": "2025-12-10T23:33:37.101024",
        "meta_mean_motion": 14.55928187,
        "meta_eccentricity": 0.0012492,
        "meta_inclination": 74.0179,
        "meta_ra_of_asc_node": 173.0457,
        "meta_arg_of_pericenter": 266.9446,
        "meta_mean_anomaly": 245.2504,
        "meta_ephemeris_type": 0,
        "meta_classification_type": "U",
        "meta_norad_cat_id": 34792,
        "meta_element_set_no": 999,
        "meta_rev_at_epoch": 87624,
        "meta_bstar": 0.00139,
        "meta_mean_motion_dot": 6.09e-05,
        "meta_mean_motion_ddot": 0,
        "tle_line1": "1 34792U 93036AAV 25344.98167941  .00006090  00000+0  13900-2 0  9998",
        "tle_line2": "2 34792  74.0179 173.0457 0012492 266.9446 245.2504 14.55928187876246"
      },
      "geometry": {
        "type": "Point",
        "coordinates": [
          -171.07958956039425,
          44.94071509329873
        ]
      }
    },
    {
      "type": "Feature",
      "properties": {
        "norad_id": 34793,
        "name": "COSMOS 2251 DEB",
        "group": "cosmos-2251-debris",
        "lat": -73.98551485029896,
        "lon": 164.6959501321408,
        "alt_km": 796.0547862139965,
        "timestamp": "2025-12-11T08:58:27.520544+00:00",
        "meta_object_name": "COSMOS 2251 DEB",
        "meta_object_id": "1993-036AAW",
        "meta_epoch": "2025-12-11T05:05:12.314112",
        "meta_mean_motion": 14.3864035,
        "meta_eccentricity": 0.0050236,
        "meta_inclination": 74.0029,
        "meta_ra_of_asc_node": 253.1892,
        "meta_arg_of_pericenter": 47.704,
        "meta_mean_anomaly": 104.6076,
        "meta_ephemeris_type": 0,
        "meta_classification_type": "U",
        "meta_norad_cat_id": 34793,
        "meta_element_set_no": 999,
        "meta_rev_at_epoch": 87308,
        "meta_bstar": 0.00038947,
        "meta_mean_motion_dot": 1.185e-05,
        "meta_mean_motion_ddot": 0,
        "tle_line1": "1 34793U 93036AAW 25345.21194808  .00001185  00000+0  38947-3 0  9997",
        "tle_line2": "2 34793  74.0029 253.1892 0050236  47.7040 104.6076 14.38640350873082"
      },
      "geometry": {
        "type": "Point",
        "coordinates": [
          164.6959501321408,
          -73.98551485029896
        ]
      }
    },
    {
      "type": "Feature",
      "properties": {
        "norad_id": 34796,
        "name": "COSMOS 2251 DEB",
        "group": "cosmos-2251-debris",
        "lat": -42.45722703501137,
        "lon": -156.28358953955774,
        "alt_km": 665.3570532276663,
        "timestamp": "2025-12-11T08:58:27.520554+00:00",
        "meta_object_name": "COSMOS 2251 DEB",
        "meta_object_id": "1993-036AAZ",
        "meta_epoch": "2025-12-10T02:22:55.926624",
        "meta_mean_motion": 14.48668134,
        "meta_eccentricity": 0.01002111,
        "meta_inclination": 74.0294,
        "meta_ra_of_asc_node": 221.2955,
        "meta_arg_of_pericenter": 323.9503,
        "meta_mean_anomaly": 186.6627,
        "meta_ephemeris_type": 0,
        "meta_classification_type": "U",
        "meta_norad_cat_id": 34796,
        "meta_element_set_no": 999,
        "meta_rev_at_epoch": 87989,
        "meta_bstar": 0.00086649883,
        "meta_mean_motion_dot": 3.449e-05,
        "meta_mean_motion_ddot": 0,
        "tle_line1": "1 34796U 93036AAZ 25344.09925841  .00003449  00000+0  86650-3 0  9993",
        "tle_line2": "2 34796  74.0294 221.2955 0100211 323.9503 186.6627 14.48668134879895"
      },
      "geometry": {
        "type": "Point",
        "coordinates": [
          -156.28358953955774,
          -42.45722703501137
        ]
      }
    },
    {
      "type": "Feature",
      "properties": {
        "norad_id": 34797,
        "name": "COSMOS 2251 DEB",
        "group": "cosmos-2251-debris",
        "lat": 66.96233102387933,
        "lon": -119.97871429436586,
        "alt_km": 759.0685307204176,
        "timestamp": "2025-12-11T08:58:27.520564+00:00",
        "meta_object_name": "COSMOS 2251 DEB",
        "meta_object_id": "1993-036ABA",
        "meta_epoch": "2025-12-08T02:15:30.483648",
        "meta_mean_motion": 14.42690241,
        "meta_eccentricity": 0.00721111,
        "meta_inclination": 73.9779,
        "meta_ra_of_asc_node": 108.638,
        "meta_arg_of_pericenter": 222.8023,
        "meta_mean_anomaly": 136.7506,
        "meta_ephemeris_type": 0,
        "meta_classification_type": "U",
        "meta_norad_cat_id": 34797,
        "meta_element_set_no": 999,
        "meta_rev_at_epoch": 87348,
        "meta_bstar": 0.0033221371,
        "meta_mean_motion_dot": 0.00011397,
        "meta_mean_motion_ddot": 0,
        "tle_line1": "1 34797U 93036ABA 25342.09410282  .00011397  00000+0  33221-2 0  9996",
        "tle_line2": "2 34797  73.9779 108.6380 0072111 222.8023 136.7506 14.42690241873482"
      },
      "geometry": {
        "type": "Point",
        "coordinates": [
          -119.97871429436586,
          66.96233102387933
        ]
      }
    }
  ]
}